{
  "type": "FeatureCollection",
  "features": [
    {
      "type": "Feature",
      "properties": {
        "norad_id": 66660,
        "name": "K-HERO",
        "group": "last-30-days",
        "lat": 55.40246240630492,
        "lon": 109.9675519692758,
        "alt_km": 590.0151115936824,
        "timestamp": "2025-12-17T10:52:53.100466+00:00",
        "meta_object_name": "K-HERO",
        "meta_object_id": "2025-274L",
        "meta_epoch": "2025-12-16T18:14:34.166688",
        "meta_mean_motion": 14.92985519,
        "meta_eccentricity": 0.00124902,
        "meta_inclination": 97.7401,
        "meta_ra_of_asc_node": 277.9137,
        "meta_arg_of_pericenter": 265.9128,
        "meta_mean_anomaly": 94.0664,
        "meta_ephemeris_type": 0,
        "meta_classification_type": "U",
        "meta_norad_cat_id": 66660,
        "meta_element_set_no": 999,
        "meta_rev_at_epoch": 300,
        "meta_bstar": 0.00027626921,
        "meta_mean_motion_dot": 2.818e-05,
        "meta_mean_motion_ddot": 0,
        "tle_line1": "1 66660U 25274L   25350.76011767  .00002818  00000+0  27627-3 0  9999",
        "tle_line2": "2 66660  97.7401 277.9137 0012490 265.9128  94.0664 14.92985519  3004"
      },
      "geometry": {
        "type": "Point",
        "coordinates": [
          109.9675519692758,
          55.40246240630492
        ]
      }
    },
    {
      "type": "Feature",
      "properties": {
        "norad_id": 66661,
        "name": "SNUGLITE-III",
        "group": "last-30-days",
        "lat": 44.745318381567756,
        "lon": 106.34653999303139,
        "alt_km": 590.3143989082919,
        "timestamp": "2025-12-17T10:52:53.100476+00:00",
        "meta_object_name": "SNUGLITE-III",
        "meta_object_id": "2025-274M",
        "meta_epoch": "2025-12-16T18:11:43.990656",
        "meta_mean_motion": 14.93120538,
        "meta_eccentricity": 0.00131165,
        "meta_inclination": 97.7398,
        "meta_ra_of_asc_node": 277.9154,
        "meta_arg_of_pericenter": 267.2195,
        "meta_mean_anomaly": 92.7523,
        "meta_ephemeris_type": 0,
        "meta_classification_type": "U",
        "meta_norad_cat_id": 66661,
        "meta_element_set_no": 999,
        "meta_rev_at_epoch": 300,
        "meta_bstar": 0.00024492844,
        "meta_mean_motion_dot": 2.501e-05,
        "meta_mean_motion_ddot": 0,
        "tle_line1": "1 66661U 25274M   25350.75814804  .00002501  00000+0  24493-3 0  9999",
        "tle_line2": "2 66661  97.7398 277.9154 0013116 267.2195  92.7523 14.93120538  3006"
      },
      "geometry": {
        "type": "Point",
        "coordinates": [
          106.34653999303139,
          44.745318381567756
        ]
      }
    },
    {
      "type": "Feature",
      "properties": {
        "norad_id": 66662,
        "name": "2025-274N",
        "group": "last-30-days",
        "lat": 40.549215568000484,
        "lon": 105.28358765295042,
        "alt_km": 590.3595113943684,
        "timestamp": "2025-12-17T10:52:53.100489+00:00",
        "meta_object_name": "2025-274N",
        "meta_object_id": "2025-274N",
        "meta_epoch": "2025-12-16T18:10:37.358976",
        "meta_mean_motion": 14.93174702,
        "meta_eccentricity": 0.00135449,
        "meta_inclination": 97.7397,
        "meta_ra_of_asc_node": 277.9167,
        "meta_arg_of_pericenter": 266.7886,
        "meta_mean_anomaly": 93.1784,
        "meta_ephemeris_type": 0,
        "meta_classification_type": "U",
        "meta_norad_cat_id": 66662,
        "meta_element_set_no": 999,
        "meta_rev_at_epoch": 300,
        "meta_bstar": 0.00025736479,
        "meta_mean_motion_dot": 2.634e-05,
        "meta_mean_motion_ddot": 0,
        "tle_line1": "1 66662U 25274N   25350.75737684  .00002634  00000+0  25736-3 0  9998",
        "tle_line2": "2 66662  97.7397 277.9167 0013544 266.7886  93.1784 14.93174702  3002"
      },
      "geometry": {
        "type": "Point",
        "coordinates": [
          105.28358765295042,
          40.549215568000484
        ]
      }
    },
    {
      "type": "Feature",
      "properties": {
        "norad_id": 66663,
        "name": "KSLV-II R/B",
        "group": "last-30-days",
        "lat": 81.8221482710937,
        "lon": 169.9812420820366,
        "alt_km": 600.2774140815409,
        "timestamp": "2025-12-17T10:52:53.100501+00:00",
        "meta_object_name": "KSLV-II R/B",
        "meta_object_id": "2025-274P",
        "meta_epoch": "2025-12-16T16:49:36.043104",
        "meta_mean_motion": 14.97367588,
        "meta_eccentricity": 0.00548465,
        "meta_inclination": 97.7431,
        "meta_ra_of_asc_node": 278.0066,
        "meta_arg_of_pericenter": 305.8627,
        "meta_mean_anomaly": 53.7508,
        "meta_ephemeris_type": 0,
        "meta_classification_type": "U",
        "meta_norad_cat_id": 66663,
        "meta_element_set_no": 999,
        "meta_rev_at_epoch": 300,
        "meta_bstar": 0.00058875803,
        "meta_mean_motion_dot": 6.993e-05,
        "meta_mean_motion_ddot": 0,
        "tle_line1": "1 66663U 25274P   25350.70111161  .00006993  00000+0  58876-3 0  9993",
        "tle_line2": "2 66663  97.7431 278.0066 0054846 305.8627  53.7508 14.97367588  3006"
      },
      "geometry": {
        "type": "Point",
        "coordinates": [
          169.9812420820366,
          81.8221482710937
        ]
      }
    },
    {
      "type": "Feature",
      "properties": {
        "norad_id": 66664,
        "name": "SOYUZ-MS 28",
        "group": "last-30-days",
        "lat": 43.60510727065427,
        "lon": 168.12728484263278,
        "alt_km": 413.86635516626393,
        "timestamp": "2025-12-17T10:52:53.100513+00:00",
        "meta_object_name": "SOYUZ-MS 28",
        "meta_object_id": "2025-275A",
        "meta_epoch": "2025-12-16T20:41:13.172928",
        "meta_mean_motion": 15.49626059,
        "meta_eccentricity": 0.00031782,
        "meta_inclination": 51.6308,
        "meta_ra_of_asc_node": 122.0659,
        "meta_arg_of_pericenter": 259.3256,
        "meta_mean_anomaly": 100.7375,
        "meta_ephemeris_type": 0,
        "meta_classification_type": "U",
        "meta_norad_cat_id": 66664,
        "meta_element_set_no": 999,
        "meta_rev_at_epoch": 128,
        "meta_bstar": 0.00014251236,
        "meta_mean_motion_dot": 7.581e-05,
        "meta_mean_motion_ddot": 0,
        "tle_line1": "1 66664U 25275A   25350.86195802  .00007581  00000+0  14251-3 0  9999",
        "tle_line2": "2 66664  51.6308 122.0659 0003178 259.3256 100.7375 15.49626059  1280"
      },
      "geometry": {
        "type": "Point",
        "coordinates": [
          168.12728484263278,
          43.60510727065427
        ]
      }
    },
    {
      "type": "Feature",
      "properties": {
        "norad_id": 66791,
        "name": "STARLINK-35867",
        "group": "last-30-days",
        "lat": -37.06481707181249,
        "lon": 97.4579726881406,
        "alt_km": 347.6176838776546,
        "timestamp": "2025-12-17T10:52:53.100524+00:00",
        "meta_object_name": "STARLINK-35867",
        "meta_object_id": "2025-278A",
        "meta_epoch": "2025-12-16T22:00:03.000096",
        "meta_mean_motion": 15.75940776,
        "meta_eccentricity": 0.000161,
        "meta_inclination": 42.9986,
        "meta_ra_of_asc_node": 226.5593,
        "meta_arg_of_pericenter": 276.3049,
        "meta_mean_anomaly": 158.4498,
        "meta_ephemeris_type": 0,
        "meta_classification_type": "U",
        "meta_norad_cat_id": 66791,
        "meta_element_set_no": 999,
        "meta_rev_at_epoch": 362,
        "meta_bstar": -0.0075306667,
        "meta_mean_motion_dot": -0.01080793,
        "meta_mean_motion_ddot": 0,
        "tle_line1": "1 66791U 25278A   25350.91670139 -.01080793  00000+0 -75307-2 0  9997",
        "tle_line2": "2 66791  42.9986 226.5593 0001610 276.3049 158.4498 15.75940776  3621"
      },
      "geometry": {
        "type": "Point",
        "coordinates": [
          97.4579726881406,
          -37.06481707181249
        ]
      }
    },
    {
      "type": "Feature",
      "properties": {
        "norad_id": 66792,
        "name": "STARLINK-35990",
        "group": "last-30-days",
        "lat": -37.806636207864415,
        "lon": 99.66970833595342,
        "alt_km": 347.68287780056653,
        "timestamp": "2025-12-17T10:52:53.100535+00:00",
        "meta_object_name": "STARLINK-35990",
        "meta_object_id": "2025-278B",
        "meta_epoch": "2025-12-16T22:00:03.000096",
        "meta_mean_motion": 15.75944979,
        "meta_eccentricity": 0.00016917,
        "meta_inclination": 42.9985,
        "meta_ra_of_asc_node": 226.5544,
        "meta_arg_of_pericenter": 281.6621,
        "meta_mean_anomaly": 155.0079,
        "meta_ephemeris_type": 0,
        "meta_classification_type": "U",
        "meta_norad_cat_id": 66792,
        "meta_element_set_no": 999,
        "meta_rev_at_epoch": 362,
        "meta_bstar": -0.0075852706,
        "meta_mean_motion_dot": -0.0108805,
        "meta_mean_motion_ddot": 0,
        "tle_line1": "1 66792U 25278B   25350.91670139 -.01088050  00000+0 -75853-2 0  9998",
        "tle_line2": "2 66792  42.9985 226.5544 0001691 281.6621 155.0079 15.75944979  3628"
      },
      "geometry": {
        "type": "Point",
        "coordinates": [
          99.66970833595342,
          -37.806636207864415
        ]
      }
    }
  ]
}